[
  {
    "name": "ONEWEB-0033",
    "noradId": "45142",
    "line1": "1 45142U 20008M   26192.56310506 -.00000023  00000+0 -10291-3 0  9994",
    "line2": "2 45142  87.8813  31.4188 0002168  97.0500 263.0874 13.10368884311407"
  },
  {
    "name": "ONEWEB-0035",
    "noradId": "45143",
    "line1": "1 45143U 20008N   26192.58361579 -.00000590  00000+0 -17256-2 0  9999",
    "line2": "2 45143  87.8814  31.4081 0001845  90.0704 270.0635 13.10377752311138"
  },
  {
    "name": "ONEWEB-0036",
    "noradId": "45144",
    "line1": "1 45144U 20008P   26192.63766226  .00000434  00000+0  12059-2 0  9995",
    "line2": "2 45144  87.8819  31.4130 0001381  58.1639 301.9622 13.10368461311560"
  },
  {
    "name": "ONEWEB-0038",
    "noradId": "45145",
    "line1": "1 45145U 20008Q   26192.50755449  .00000485  00000+0  13329-2 0  9994",
    "line2": "2 45145  87.8876  16.2363 0001708 148.4619 211.6611 13.11415639313510"
  },
  {
    "name": "ONEWEB-0039",
    "noradId": "45146",
    "line1": "1 45146U 20008R   26192.56650128 -.00000097  00000+0 -31390-3 0  9999",
    "line2": "2 45146  87.8814  31.4089 0001291  74.7490 285.3780 13.10371446311353"
  },
  {
    "name": "ONEWEB-0040",
    "noradId": "45147",
    "line1": "1 45147U 20008S   26192.55970856  .00000158  00000+0  41601-3 0  9994",
    "line2": "2 45147  87.8810  31.4208 0001904  77.2167 282.9173 13.10368731311052"
  },
  {
    "name": "ONEWEB-0043",
    "noradId": "45149",
    "line1": "1 45149U 20008U   26192.56155550  .00000056  00000+0  12527-3 0  9995",
    "line2": "2 45149  87.8821  31.4098 0001369  77.5552 282.5728 13.10372056311371"
  },
  {
    "name": "ONEWEB-0044",
    "noradId": "45150",
    "line1": "1 45150U 20008V   26192.59027157 -.00000378  00000+0 -11182-2 0  9995",
    "line2": "2 45150  87.8828  31.4058 0001784  81.8491 278.2839 13.10377348311674"
  },
  {
    "name": "ONEWEB-0045",
    "noradId": "45151",
    "line1": "1 45151U 20008W   26192.57862722  .00000597  00000+0  16489-2 0  9995",
    "line2": "2 45151  87.8884  16.2033 0001742  93.8865 266.2462 13.11416321313603"
  },
  {
    "name": "ONEWEB-0047",
    "noradId": "45152",
    "line1": "1 45152U 20008X   26192.58331955 -.00000608  00000+0 -17787-2 0  9993",
    "line2": "2 45152  87.8825  31.4063 0001850  94.1004 266.0335 13.10372508311398"
  },
  {
    "name": "ONEWEB-0048",
    "noradId": "45153",
    "line1": "1 45153U 20008Y   26192.57838417 -.00000538  00000+0 -15781-2 0  9992",
    "line2": "2 45153  87.8812  31.4257 0001684  91.1190 269.0130 13.10372056311000"
  },
  {
    "name": "ONEWEB-0049",
    "noradId": "45154",
    "line1": "1 45154U 20008Z   26192.58161602 -.00000593  00000+0 -17352-2 0  9996",
    "line2": "2 45154  87.8815  31.4147 0001966  75.3215 284.8130 13.10372246311227"
  },
  {
    "name": "ONEWEB-0051",
    "noradId": "45155",
    "line1": "1 45155U 20008AA  26192.50063861  .00000613  00000+0  16941-2 0  9991",
    "line2": "2 45155  87.8882  16.2256 0001839  88.8617 271.2722 13.11417747314270"
  },
  {
    "name": "ONEWEB-0052",
    "noradId": "45156",
    "line1": "1 45156U 20008AB  26192.60229848  .00000176  00000+0  46653-3 0  9990",
    "line2": "2 45156  87.8825  31.3980 0001858  73.9939 286.1393 13.10377749311130"
  },
  {
    "name": "ONEWEB-0053",
    "noradId": "45157",
    "line1": "1 45157U 20008AC  26192.55801769  .00000263  00000+0  71611-3 0  9992",
    "line2": "2 45157  87.8812  31.4266 0001555  73.5914 286.5384 13.10369256311103"
  },
  {
    "name": "ONEWEB-0054",
    "noradId": "45158",
    "line1": "1 45158U 20008AD  26192.59366412 -.00000498  00000+0 -14626-2 0  9992",
    "line2": "2 45158  87.8823  31.4046 0001749  86.8068 273.3260 13.10377134311228"
  }
]