{"fetched_at":"2026-07-12T05:52:33.815Z","source":"https://celestrak.org/NORAD/elements/gp.php?GROUP=oneweb&FORMAT=JSON","constellation":"oneweb","records":[{"OBJECT_NAME":"ONEWEB-0033","OBJECT_ID":"2020-008M","EPOCH":"2026-07-11T13:30:52.277184","CLASSIFICATION_TYPE":"U","MEAN_MOTION":13.10368884,"ECCENTRICITY":0.0002168,"INCLINATION":87.8813,"RA_OF_ASC_NODE":31.4188,"ARG_OF_PERICENTER":97.05,"MEAN_ANOMALY":263.0874,"EPHEMERIS_TYPE":0,"NORAD_CAT_ID":45142,"ELEMENT_SET_NO":999,"REV_AT_EPOCH":31140,"BSTAR":-0.00010291,"MEAN_MOTION_DOT":-2.3e-7,"MEAN_MOTION_DDOT":0},{"OBJECT_NAME":"ONEWEB-0035","OBJECT_ID":"2020-008N","EPOCH":"2026-07-11T14:00:24.404256","CLASSIFICATION_TYPE":"U","MEAN_MOTION":13.10377752,"ECCENTRICITY":0.0001845,"INCLINATION":87.8814,"RA_OF_ASC_NODE":31.4081,"ARG_OF_PERICENTER":90.0704,"MEAN_ANOMALY":270.0635,"EPHEMERIS_TYPE":0,"NORAD_CAT_ID":45143,"ELEMENT_SET_NO":999,"REV_AT_EPOCH":31113,"BSTAR":-0.0017256,"MEAN_MOTION_DOT":-0.0000059,"MEAN_MOTION_DDOT":0},{"OBJECT_NAME":"ONEWEB-0036","OBJECT_ID":"2020-008P","EPOCH":"2026-07-11T15:18:14.019264","CLASSIFICATION_TYPE":"U","MEAN_MOTION":13.10368461,"ECCENTRICITY":0.0001381,"INCLINATION":87.8819,"RA_OF_ASC_NODE":31.413,"ARG_OF_PERICENTER":58.1639,"MEAN_ANOMALY":301.9622,"EPHEMERIS_TYPE":0,"NORAD_CAT_ID":45144,"ELEMENT_SET_NO":999,"REV_AT_EPOCH":31156,"BSTAR":0.0012059,"MEAN_MOTION_DOT":0.00000434,"MEAN_MOTION_DDOT":0},{"OBJECT_NAME":"ONEWEB-0038","OBJECT_ID":"2020-008Q","EPOCH":"2026-07-11T12:10:52.707936","CLASSIFICATION_TYPE":"U","MEAN_MOTION":13.11415639,"ECCENTRICITY":0.0001708,"INCLINATION":87.8876,"RA_OF_ASC_NODE":16.2363,"ARG_OF_PERICENTER":148.4619,"MEAN_ANOMALY":211.6611,"EPHEMERIS_TYPE":0,"NORAD_CAT_ID":45145,"ELEMENT_SET_NO":999,"REV_AT_EPOCH":31351,"BSTAR":0.0013328835,"MEAN_MOTION_DOT":0.00000485,"MEAN_MOTION_DDOT":0},{"OBJECT_NAME":"ONEWEB-0039","OBJECT_ID":"2020-008R","EPOCH":"2026-07-11T13:35:45.710592","CLASSIFICATION_TYPE":"U","MEAN_MOTION":13.10371446,"ECCENTRICITY":0.0001291,"INCLINATION":87.8814,"RA_OF_ASC_NODE":31.4089,"ARG_OF_PERICENTER":74.749,"MEAN_ANOMALY":285.378,"EPHEMERIS_TYPE":0,"NORAD_CAT_ID":45146,"ELEMENT_SET_NO":999,"REV_AT_EPOCH":31135,"BSTAR":-0.0003139,"MEAN_MOTION_DOT":-9.7e-7,"MEAN_MOTION_DDOT":0},{"OBJECT_NAME":"ONEWEB-0040","OBJECT_ID":"2020-008S","EPOCH":"2026-07-11T13:25:58.819584","CLASSIFICATION_TYPE":"U","MEAN_MOTION":13.10368731,"ECCENTRICITY":0.0001904,"INCLINATION":87.881,"RA_OF_ASC_NODE":31.4208,"ARG_OF_PERICENTER":77.2167,"MEAN_ANOMALY":282.9173,"EPHEMERIS_TYPE":0,"NORAD_CAT_ID":45147,"ELEMENT_SET_NO":999,"REV_AT_EPOCH":31105,"BSTAR":0.00041601,"MEAN_MOTION_DOT":0.00000158,"MEAN_MOTION_DDOT":0},{"OBJECT_NAME":"ONEWEB-0043","OBJECT_ID":"2020-008U","EPOCH":"2026-07-11T13:28:38.395200","CLASSIFICATION_TYPE":"U","MEAN_MOTION":13.10372056,"ECCENTRICITY":0.0001369,"INCLINATION":87.8821,"RA_OF_ASC_NODE":31.4098,"ARG_OF_PERICENTER":77.5552,"MEAN_ANOMALY":282.5728,"EPHEMERIS_TYPE":0,"NORAD_CAT_ID":45149,"ELEMENT_SET_NO":999,"REV_AT_EPOCH":31137,"BSTAR":0.00012527,"MEAN_MOTION_DOT":5.6e-7,"MEAN_MOTION_DDOT":0},{"OBJECT_NAME":"ONEWEB-0044","OBJECT_ID":"2020-008V","EPOCH":"2026-07-11T14:09:59.463648","CLASSIFICATION_TYPE":"U","MEAN_MOTION":13.10377348,"ECCENTRICITY":0.0001784,"INCLINATION":87.8828,"RA_OF_ASC_NODE":31.4058,"ARG_OF_PERICENTER":81.8491,"MEAN_ANOMALY":278.2839,"EPHEMERIS_TYPE":0,"NORAD_CAT_ID":45150,"ELEMENT_SET_NO":999,"REV_AT_EPOCH":31167,"BSTAR":-0.0011182,"MEAN_MOTION_DOT":-0.00000378,"MEAN_MOTION_DDOT":0},{"OBJECT_NAME":"ONEWEB-0045","OBJECT_ID":"2020-008W","EPOCH":"2026-07-11T13:53:13.391808","CLASSIFICATION_TYPE":"U","MEAN_MOTION":13.11416321,"ECCENTRICITY":0.0001742,"INCLINATION":87.8884,"RA_OF_ASC_NODE":16.2033,"ARG_OF_PERICENTER":93.8865,"MEAN_ANOMALY":266.2462,"EPHEMERIS_TYPE":0,"NORAD_CAT_ID":45151,"ELEMENT_SET_NO":999,"REV_AT_EPOCH":31360,"BSTAR":0.0016489,"MEAN_MOTION_DOT":0.00000597,"MEAN_MOTION_DDOT":0},{"OBJECT_NAME":"ONEWEB-0047","OBJECT_ID":"2020-008X","EPOCH":"2026-07-11T13:59:58.809120","CLASSIFICATION_TYPE":"U","MEAN_MOTION":13.10372508,"ECCENTRICITY":0.000185,"INCLINATION":87.8825,"RA_OF_ASC_NODE":31.4063,"ARG_OF_PERICENTER":94.1004,"MEAN_ANOMALY":266.0335,"EPHEMERIS_TYPE":0,"NORAD_CAT_ID":45152,"ELEMENT_SET_NO":999,"REV_AT_EPOCH":31139,"BSTAR":-0.0017787,"MEAN_MOTION_DOT":-0.00000608,"MEAN_MOTION_DDOT":0},{"OBJECT_NAME":"ONEWEB-0048","OBJECT_ID":"2020-008Y","EPOCH":"2026-07-11T13:52:52.392288","CLASSIFICATION_TYPE":"U","MEAN_MOTION":13.10372056,"ECCENTRICITY":0.0001684,"INCLINATION":87.8812,"RA_OF_ASC_NODE":31.4257,"ARG_OF_PERICENTER":91.119,"MEAN_ANOMALY":269.013,"EPHEMERIS_TYPE":0,"NORAD_CAT_ID":45153,"ELEMENT_SET_NO":999,"REV_AT_EPOCH":31100,"BSTAR":-0.0015781,"MEAN_MOTION_DOT":-0.00000538,"MEAN_MOTION_DDOT":0},{"OBJECT_NAME":"ONEWEB-0049","OBJECT_ID":"2020-008Z","EPOCH":"2026-07-11T13:57:31.624128","CLASSIFICATION_TYPE":"U","MEAN_MOTION":13.10372246,"ECCENTRICITY":0.0001966,"INCLINATION":87.8815,"RA_OF_ASC_NODE":31.4147,"ARG_OF_PERICENTER":75.3215,"MEAN_ANOMALY":284.813,"EPHEMERIS_TYPE":0,"NORAD_CAT_ID":45154,"ELEMENT_SET_NO":999,"REV_AT_EPOCH":31122,"BSTAR":-0.0017352,"MEAN_MOTION_DOT":-0.00000593,"MEAN_MOTION_DDOT":0},{"OBJECT_NAME":"ONEWEB-0051","OBJECT_ID":"2020-008AA","EPOCH":"2026-07-11T12:00:55.175904","CLASSIFICATION_TYPE":"U","MEAN_MOTION":13.11417747,"ECCENTRICITY":0.00018395,"INCLINATION":87.8882,"RA_OF_ASC_NODE":16.2256,"ARG_OF_PERICENTER":88.8617,"MEAN_ANOMALY":271.2722,"EPHEMERIS_TYPE":0,"NORAD_CAT_ID":45155,"ELEMENT_SET_NO":999,"REV_AT_EPOCH":31427,"BSTAR":0.0016940708,"MEAN_MOTION_DOT":0.00000613,"MEAN_MOTION_DDOT":0},{"OBJECT_NAME":"ONEWEB-0052","OBJECT_ID":"2020-008AB","EPOCH":"2026-07-11T14:27:18.588672","CLASSIFICATION_TYPE":"U","MEAN_MOTION":13.10377749,"ECCENTRICITY":0.0001858,"INCLINATION":87.8825,"RA_OF_ASC_NODE":31.398,"ARG_OF_PERICENTER":73.9939,"MEAN_ANOMALY":286.1393,"EPHEMERIS_TYPE":0,"NORAD_CAT_ID":45156,"ELEMENT_SET_NO":999,"REV_AT_EPOCH":31113,"BSTAR":0.00046653,"MEAN_MOTION_DOT":0.00000176,"MEAN_MOTION_DDOT":0},{"OBJECT_NAME":"ONEWEB-0053","OBJECT_ID":"2020-008AC","EPOCH":"2026-07-11T13:23:32.728416","CLASSIFICATION_TYPE":"U","MEAN_MOTION":13.10369256,"ECCENTRICITY":0.0001555,"INCLINATION":87.8812,"RA_OF_ASC_NODE":31.4266,"ARG_OF_PERICENTER":73.5914,"MEAN_ANOMALY":286.5384,"EPHEMERIS_TYPE":0,"NORAD_CAT_ID":45157,"ELEMENT_SET_NO":999,"REV_AT_EPOCH":31110,"BSTAR":0.00071611,"MEAN_MOTION_DOT":0.00000263,"MEAN_MOTION_DDOT":0},{"OBJECT_NAME":"ONEWEB-0054","OBJECT_ID":"2020-008AD","EPOCH":"2026-07-11T14:14:52.579968","CLASSIFICATION_TYPE":"U","MEAN_MOTION":13.10377134,"ECCENTRICITY":0.0001749,"INCLINATION":87.8823,"RA_OF_ASC_NODE":31.4046,"ARG_OF_PERICENTER":86.8068,"MEAN_ANOMALY":273.326,"EPHEMERIS_TYPE":0,"NORAD_CAT_ID":45158,"ELEMENT_SET_NO":999,"REV_AT_EPOCH":31122,"BSTAR":-0.0014626,"MEAN_MOTION_DOT":-0.00000498,"MEAN_MOTION_DDOT":0}]}
